[{"OBJECT_NAME":"GHOST-5","OBJECT_ID":"2024-043AJ","EPOCH":"2026-03-09T22:12:39.602304","MEAN_MOTION":15.40053236,"ECCENTRICITY":0.00079958,"INCLINATION":97.5429,"RA_OF_ASC_NODE":210.0004,"ARG_OF_PERICENTER":209.6762,"MEAN_ANOMALY":150.4031,"EPHEMERIS_TYPE":0,"CLASSIFICATION_TYPE":"U","NORAD_CAT_ID":59130,"ELEMENT_SET_NO":999,"REV_AT_EPOCH":11222,"BSTAR":0.00046979061,"MEAN_MOTION_DOT":0.00018732,"MEAN_MOTION_DDOT":0},{"OBJECT_NAME":"FREGAT DEB","OBJECT_ID":"2011-037NP","EPOCH":"2026-03-04T10:37:24.073536","MEAN_MOTION":11.29539102,"ECCENTRICITY":0.18874903,"INCLINATION":51.4119,"RA_OF_ASC_NODE":94.1703,"ARG_OF_PERICENTER":115.556,"MEAN_ANOMALY":265.207,"EPHEMERIS_TYPE":0,"CLASSIFICATION_TYPE":"U","NORAD_CAT_ID":47332,"ELEMENT_SET_NO":999,"REV_AT_EPOCH":21212,"BSTAR":0.00027671275,"MEAN_MOTION_DOT":1.141e-5,"MEAN_MOTION_DDOT":0}]
